Keyword,#,Name,Phone,Website,Country,"Country code",City,Category,"Category List",Likes,"Talking about","Facebook ID","Facebook Url","Facebook Page Link","P2S Website"
"Bed & Breakfast Accommodation",0,"Cygnet's Secret Garden, Bed & Breakfast - Accommodation","+61 6295 0223",http://www.cygnets-secret-garden.com.au,,,,Travel/leisure,,108,1,673448822728459,http://www.facebook.com/673448822728459,"=HYPERLINK(""http://www.facebook.com/673448822728459/?sk=info"", ""673448822728459"")","=HYPERLINK(""http://builder.page2site.com/sites/add/fbid:673448822728459"", ""Create"")"
"Bed & Breakfast Accommodation",1,"Drury Homestead, Bed and Breakfast Accommodation","+64 9 2949 030",,"New Zealand",64,Auckland,Hotel,"[{""id"":""164243073639257"",""name"":""Hotel""}]",96,,280734435271047,http://www.facebook.com/280734435271047,"=HYPERLINK(""http://www.facebook.com/280734435271047/?sk=info"", ""280734435271047"")","=HYPERLINK(""http://builder.page2site.com/sites/add/fbid:280734435271047"", ""Create"")"
"Bed & Breakfast Accommodation",2,"Kenmare House B&B,bed & breakfast ,accommodation",0646641283,www.kenmarehousebandb.com,Ireland,353,Kenmare,Hotel,"[{""id"":""164243073639257"",""name"":""Hotel""}]",133,14,161022410615944,http://www.facebook.com/161022410615944,"=HYPERLINK(""http://www.facebook.com/161022410615944/?sk=info"", ""161022410615944"")","=HYPERLINK(""http://builder.page2site.com/sites/add/fbid:161022410615944"", ""Create"")"
"Bed & Breakfast Accommodation",3,"Cornlee Guest House - Bed & Breakfast Accommodation","01969 663779",www.cornlee.co.uk,"United Kingdom",44,Aysgarth,Hotel,"[{""id"":""110321355709642"",""name"":""Bed and Breakfast""},{""id"":""164243073639257"",""name"":""Hotel""}]",77,11,428359530573834,http://www.facebook.com/428359530573834,"=HYPERLINK(""http://www.facebook.com/428359530573834/?sk=info"", ""428359530573834"")","=HYPERLINK(""http://builder.page2site.com/sites/add/fbid:428359530573834"", ""Create"")"
"Bed & Breakfast Accommodation",4,"Dubrovnik bed and breakfast - Accommodation in Croatia",+385912015591,www.dubrovnikbedandbreakfast.com,Croatia,385,Dubrovnik,Travel/leisure,"[{""id"":""164243073639257"",""name"":""Hotel""},{""id"":""110321355709642"",""name"":""Bed and Breakfast""}]",471,,161146607985,http://www.facebook.com/161146607985,"=HYPERLINK(""http://www.facebook.com/161146607985/?sk=info"", ""161146607985"")","=HYPERLINK(""http://builder.page2site.com/sites/add/fbid:161146607985"", ""Create"")"
"Bed & Breakfast Accommodation",5,"Eagle's Nest Bed & Breakfast, Grahamstown Accommodation, Eastern Cape",0826570359,http://www.eaglesnestbnb.co.za,"South Africa",27,Grahamstown,Hotel,"[{""id"":""110321355709642"",""name"":""Bed and Breakfast""}]",203,1,131680997030489,http://www.facebook.com/131680997030489,"=HYPERLINK(""http://www.facebook.com/131680997030489/?sk=info"", ""131680997030489"")","=HYPERLINK(""http://builder.page2site.com/sites/add/fbid:131680997030489"", ""Create"")"
"Bed & Breakfast Accommodation",6,"Westward Bed and Breakfast Accommodation, Newquay Cornwall.","0044 (0) 1637871627",http://www.westwardnewquay.co.uk/,"United Kingdom",44,Newquay,Hotel,"[{""id"":""164243073639257"",""name"":""Hotel""},{""id"":""110321355709642"",""name"":""Bed and Breakfast""}]",118,,358203419332,http://www.facebook.com/358203419332,"=HYPERLINK(""http://www.facebook.com/358203419332/?sk=info"", ""358203419332"")","=HYPERLINK(""http://builder.page2site.com/sites/add/fbid:358203419332"", ""Create"")"
"Bed & Breakfast Accommodation",7,"Sally Webster Inn, a Bed & Breakfast Accommodation in Rockport, MA","(978) 546-9251",www.sallywebster.com,"United States",1,Rockport,Hotel,"[{""id"":""110321355709642"",""name"":""Bed and Breakfast""},{""id"":""164243073639257"",""name"":""Hotel""}]",216,,167988263232412,http://www.facebook.com/167988263232412,"=HYPERLINK(""http://www.facebook.com/167988263232412/?sk=info"", ""167988263232412"")","=HYPERLINK(""http://builder.page2site.com/sites/add/fbid:167988263232412"", ""Create"")"
"Bed & Breakfast Accommodation",8,"Haye Farm Bed and Breakfast accommodation","01297 551504",www.hayefarm.net,"United Kingdom",44,Axminster,"Local business",,144,,181595758545630,http://www.facebook.com/181595758545630,"=HYPERLINK(""http://www.facebook.com/181595758545630/?sk=info"", ""181595758545630"")","=HYPERLINK(""http://builder.page2site.com/sites/add/fbid:181595758545630"", ""Create"")"
"Bed & Breakfast Accommodation",9,"A Stones Throw Bed and Breakfast, Grahamstown Accommodation, Eastern Cape",0836519244,http://www.astonesthrow.co.za,"South Africa",27,Grahamstown,Hotel,"[{""id"":""164243073639257"",""name"":""Hotel""},{""id"":""110321355709642"",""name"":""Bed and Breakfast""},{""id"":""213629078651577"",""name"":""Cabin""}]",3257,25,31928133298,http://www.facebook.com/31928133298,"=HYPERLINK(""http://www.facebook.com/31928133298/?sk=info"", ""31928133298"")","=HYPERLINK(""http://builder.page2site.com/sites/add/fbid:31928133298"", ""Create"")"
"Bed & Breakfast Accommodation",10,"Austiny Bed and Breakfast Accommodation",,www.austinybedandbreakfast.com.au,Australia,61,"Victor Harbor","Local business","[{""id"":""110321355709642"",""name"":""Bed and Breakfast""},{""id"":""164243073639257"",""name"":""Hotel""}]",100,11,179726745381638,http://www.facebook.com/179726745381638,"=HYPERLINK(""http://www.facebook.com/179726745381638/?sk=info"", ""179726745381638"")","=HYPERLINK(""http://builder.page2site.com/sites/add/fbid:179726745381638"", ""Create"")"
"Bed & Breakfast Accommodation",11,"Alexander Lakeside Bed & Breakfast Hervey Bay","+61 7 4128 9448",http://www.herveybaybedandbreakfast.com.au,Australia,61,Urangan,Hotel,"[{""id"":""164243073639257"",""name"":""Hotel""}]",315,16,165421686817125,http://www.facebook.com/165421686817125,"=HYPERLINK(""http://www.facebook.com/165421686817125/?sk=info"", ""165421686817125"")","=HYPERLINK(""http://builder.page2site.com/sites/add/fbid:165421686817125"", ""Create"")"
"Bed & Breakfast Accommodation",12,"Serenity On The Border Self Catered Bed & Breakfast Accommodation",0260247039,http://www.serenityontheborder.com.au,Australia,61,Wodonga,"Small business","[{""id"":""129417183848258"",""name"":""Just For Fun""}]",62,1,551991064828864,http://www.facebook.com/551991064828864,"=HYPERLINK(""http://www.facebook.com/551991064828864/?sk=info"", ""551991064828864"")","=HYPERLINK(""http://builder.page2site.com/sites/add/fbid:551991064828864"", ""Create"")"
"Bed & Breakfast Accommodation",13,"Bendalls Bed and Breakfast accommodation Hobart","0418 802 706",http://www.bendallsaccommodation.com,Australia,61,Hobart,Hotel,"[{""id"":""164243073639257"",""name"":""Hotel""}]",62,,283168438748,http://www.facebook.com/283168438748,"=HYPERLINK(""http://www.facebook.com/283168438748/?sk=info"", ""283168438748"")","=HYPERLINK(""http://builder.page2site.com/sites/add/fbid:283168438748"", ""Create"")"
"Bed & Breakfast Accommodation",14,"Silk Pavilions | Glamping Accommodation | Bed & Breakfast - Mt Warning, NSW","02 6679 7354",http://www.silkpavilions.com.au,Australia,61,"Mount Burrell",Hotel,"[{""id"":""164243073639257"",""name"":""Hotel""}]",368,33,179720192086785,http://www.facebook.com/179720192086785,"=HYPERLINK(""http://www.facebook.com/179720192086785/?sk=info"", ""179720192086785"")","=HYPERLINK(""http://builder.page2site.com/sites/add/fbid:179720192086785"", ""Create"")"
"Bed & Breakfast Accommodation",15,"Gloria's Bed and Breakfast Accommodation","+260 213 327 203 ",http://www.gloriabedandbreakfast.com/zambia,Zambia,260,Livingstone,"Small business","[{""id"":""139745066094977"",""name"":""Business Center""}]",25,,296180503776459,http://www.facebook.com/296180503776459,"=HYPERLINK(""http://www.facebook.com/296180503776459/?sk=info"", ""296180503776459"")","=HYPERLINK(""http://builder.page2site.com/sites/add/fbid:296180503776459"", ""Create"")"
"Bed & Breakfast Accommodation",16,"Bunratty Meadows Bed and Breakfast Guest Accommodation","00353 (0) 61 364725",www.bunrattymeadows.com,Ireland,353,Bunratty,Hotel,"[{""id"":""110321355709642"",""name"":""Bed and Breakfast""}]",531,,165333366846843,http://www.facebook.com/165333366846843,"=HYPERLINK(""http://www.facebook.com/165333366846843/?sk=info"", ""165333366846843"")","=HYPERLINK(""http://builder.page2site.com/sites/add/fbid:165333366846843"", ""Create"")"
"Bed & Breakfast Accommodation",17,"Federation of Ontario Bed and Breakfast Accommodation",,http://www.fobba.com/,Canada,1,Guelph,"Non-profit organization","[{""id"":""161811347201528"",""name"":""Lodging""}]",57,11,159261537499470,http://www.facebook.com/159261537499470,"=HYPERLINK(""http://www.facebook.com/159261537499470/?sk=info"", ""159261537499470"")","=HYPERLINK(""http://builder.page2site.com/sites/add/fbid:159261537499470"", ""Create"")"
"Bed & Breakfast Accommodation",18,"Strahan Accommodation, Ormiston House Bed and Breakfast Tasmania",0364717077,www.ormistonhouse.com.au,Australia,61,Strahan,Hotel,"[{""id"":""164243073639257"",""name"":""Hotel""}]",274,3,133155893372085,http://www.facebook.com/133155893372085,"=HYPERLINK(""http://www.facebook.com/133155893372085/?sk=info"", ""133155893372085"")","=HYPERLINK(""http://builder.page2site.com/sites/add/fbid:133155893372085"", ""Create"")"
"Bed & Breakfast Accommodation",19,"The Coppice, Lake District Bed and Breakfast Accommodation","015394 88501",www.thecoppice.co.uk,"United Kingdom",44,Windermere,Hotel,"[{""id"":""164243073639257"",""name"":""Hotel""}]",125,3,132102073490923,http://www.facebook.com/132102073490923,"=HYPERLINK(""http://www.facebook.com/132102073490923/?sk=info"", ""132102073490923"")","=HYPERLINK(""http://builder.page2site.com/sites/add/fbid:132102073490923"", ""Create"")"
"Bed & Breakfast Accommodation",20,"Braeside Court Halifax Bed & Breakfast Accommodation","(902) 462-3956",http://www.braesidecourtbandb.ca,Canada,1,Dartmouth,Hotel,"[{""id"":""164243073639257"",""name"":""Hotel""}]",34,,112150648798723,http://www.facebook.com/112150648798723,"=HYPERLINK(""http://www.facebook.com/112150648798723/?sk=info"", ""112150648798723"")","=HYPERLINK(""http://builder.page2site.com/sites/add/fbid:112150648798723"", ""Create"")"
"Bed & Breakfast Accommodation",21,"Bed and Breakfast Accommodation in Brighton East Sussex","0844 736 1847",http://www.seabreezebrighton.com/,"United Kingdom",44,Brighton,Hotel,"[{""id"":""164243073639257"",""name"":""Hotel""},{""id"":""110321355709642"",""name"":""Bed and Breakfast""}]",60,,514265431973319,http://www.facebook.com/514265431973319,"=HYPERLINK(""http://www.facebook.com/514265431973319/?sk=info"", ""514265431973319"")","=HYPERLINK(""http://builder.page2site.com/sites/add/fbid:514265431973319"", ""Create"")"
"Bed & Breakfast Accommodation",22,"Bed & Breakfast Accommodation Northland McSherry's"," +64094365453",www.mcsherrys.co.nz,"New Zealand",64,Whangarei,"Local business","[{""id"":""161811347201528"",""name"":""Lodging""}]",15,,111800202191465,http://www.facebook.com/111800202191465,"=HYPERLINK(""http://www.facebook.com/111800202191465/?sk=info"", ""111800202191465"")","=HYPERLINK(""http://builder.page2site.com/sites/add/fbid:111800202191465"", ""Create"")"
"Bed & Breakfast Accommodation",23,"Cranbrook Cottage Vineyard Bed & Breakfast Accommodation","03-572 8606",,"New Zealand",64,Blenheim,Hotel,"[{""id"":""209630435729071"",""name"":""Winery & Vineyard""},{""id"":""189006297788323"",""name"":""Cottage""},{""id"":""110321355709642"",""name"":""Bed and Breakfast""}]",14,,108399042648722,http://www.facebook.com/108399042648722,"=HYPERLINK(""http://www.facebook.com/108399042648722/?sk=info"", ""108399042648722"")","=HYPERLINK(""http://builder.page2site.com/sites/add/fbid:108399042648722"", ""Create"")"
"Bed & Breakfast Accommodation",24,"North Side Bed & Breakfast Accommodation",0458682151,http://www.muswellbrooknorthsidebnb.com.au/default.html,Australia,61,Muswellbrook,"Local business","[{""id"":""110321355709642"",""name"":""Bed and Breakfast""}]",29,,258759387611493,http://www.facebook.com/258759387611493,"=HYPERLINK(""http://www.facebook.com/258759387611493/?sk=info"", ""258759387611493"")","=HYPERLINK(""http://builder.page2site.com/sites/add/fbid:258759387611493"", ""Create"")"
"Bed & Breakfast Accommodation",25,"Villa Shalom Bed & Breakfast and self catering Accommodation","1-868-776-3046 or   1-868-621-0138",http://www.villashalom.com,"Trinidad and Tobago","1 868","City of Port-of-Spain",Hotel,"[{""id"":""164243073639257"",""name"":""Hotel""}]",2258,2,112580025524793,http://www.facebook.com/112580025524793,"=HYPERLINK(""http://www.facebook.com/112580025524793/?sk=info"", ""112580025524793"")","=HYPERLINK(""http://builder.page2site.com/sites/add/fbid:112580025524793"", ""Create"")"
"Bed & Breakfast Accommodation",26,"Cabragh House, Bed and Breakfast Accommodation","00 353 0 (49)5552153  Mobile No. 0872693740",,,,,"Local business","[{""id"":""110321355709642"",""name"":""Bed and Breakfast""}]",52,1,415415378524082,http://www.facebook.com/415415378524082,"=HYPERLINK(""http://www.facebook.com/415415378524082/?sk=info"", ""415415378524082"")","=HYPERLINK(""http://builder.page2site.com/sites/add/fbid:415415378524082"", ""Create"")"
"Bed & Breakfast Accommodation",27,"Marae"" Bed and Breakfast accommodation","07 4098 4900",http://www.marae.com.au,Australia,61,"Port Douglas",Hotel,"[{""id"":""110321355709642"",""name"":""Bed and Breakfast""}]",37,4,226628530873426,http://www.facebook.com/226628530873426,"=HYPERLINK(""http://www.facebook.com/226628530873426/?sk=info"", ""226628530873426"")","=HYPERLINK(""http://builder.page2site.com/sites/add/fbid:226628530873426"", ""Create"")"
"Bed & Breakfast Accommodation",28,"Hampton Accommodations. Bed n Breakfast","(631) 324-0479",,"United States",1,"East Hampton",Hotel,"[{""id"":""164243073639257"",""name"":""Hotel""}]",15,,564115957019414,http://www.facebook.com/564115957019414,"=HYPERLINK(""http://www.facebook.com/564115957019414/?sk=info"", ""564115957019414"")","=HYPERLINK(""http://builder.page2site.com/sites/add/fbid:564115957019414"", ""Create"")"
"Bed & Breakfast Accommodation",29,"Fringe Of Heaven Bed and Breakfast Accommodation","+64 9 8178682",www.fringeofheaven.com,"New Zealand",64,Auckland,Hotel,"[{""id"":""164243073639257"",""name"":""Hotel""}]",125,,179204495479261,http://www.facebook.com/179204495479261,"=HYPERLINK(""http://www.facebook.com/179204495479261/?sk=info"", ""179204495479261"")","=HYPERLINK(""http://builder.page2site.com/sites/add/fbid:179204495479261"", ""Create"")"
"Bed & Breakfast Accommodation",30,"The Lakeland Hills Bed and Breakfast Accommodation",01539722054,,"United Kingdom",44,Burneside,"Local business",,39,,206332672772414,http://www.facebook.com/206332672772414,"=HYPERLINK(""http://www.facebook.com/206332672772414/?sk=info"", ""206332672772414"")","=HYPERLINK(""http://builder.page2site.com/sites/add/fbid:206332672772414"", ""Create"")"
"Bed & Breakfast Accommodation",31,"Hepworth guest accommodation luxury bed and breakfast  Newquay","01637 873686",http://www.hepworthnewquay.co.uk/www.hepworthhotel.co.uk/,"United Kingdom",44,Newquay,Travel/leisure,"[{""id"":""110321355709642"",""name"":""Bed and Breakfast""}]",55,1,614557258572511,http://www.facebook.com/614557258572511,"=HYPERLINK(""http://www.facebook.com/614557258572511/?sk=info"", ""614557258572511"")","=HYPERLINK(""http://builder.page2site.com/sites/add/fbid:614557258572511"", ""Create"")"
"Bed & Breakfast Accommodation",32,"Accommodation bed & breakfast milano lambrate",+39-3395270812,www.mataguesthousemilano.it,Italy,39,Milan,Hotel,"[{""id"":""110321355709642"",""name"":""Bed and Breakfast""},{""id"":""164243073639257"",""name"":""Hotel""}]",46,1,357473197631050,http://www.facebook.com/357473197631050,"=HYPERLINK(""http://www.facebook.com/357473197631050/?sk=info"", ""357473197631050"")","=HYPERLINK(""http://builder.page2site.com/sites/add/fbid:357473197631050"", ""Create"")"
"Bed & Breakfast Accommodation",33,"Pounds Farm, Bed and Breakfast Accommodation","01823 680802",http://poundsfarm.co.uk,"United Kingdom",44,Cullompton,Hotel,"[{""id"":""110321355709642"",""name"":""Bed and Breakfast""}]",81,,573793355994519,http://www.facebook.com/573793355994519,"=HYPERLINK(""http://www.facebook.com/573793355994519/?sk=info"", ""573793355994519"")","=HYPERLINK(""http://builder.page2site.com/sites/add/fbid:573793355994519"", ""Create"")"
"Bed & Breakfast Accommodation",34,"Lambley Park - Quality Bed and Breakfast Accommodation","01288 341519",www.lambley-park.co.uk,"United Kingdom",44,Holsworthy,Hotel,,65,,145012735653718,http://www.facebook.com/145012735653718,"=HYPERLINK(""http://www.facebook.com/145012735653718/?sk=info"", ""145012735653718"")","=HYPERLINK(""http://builder.page2site.com/sites/add/fbid:145012735653718"", ""Create"")"
"Bed & Breakfast Accommodation",35,"Lazy Days Bed and Breakfast Accommodation Victor Harbor","08 8554 6529",www.lazydayscottagebnb.com.au,Australia,61,"Victor Harbor","Local business",,41,7,309195485863003,http://www.facebook.com/309195485863003,"=HYPERLINK(""http://www.facebook.com/309195485863003/?sk=info"", ""309195485863003"")","=HYPERLINK(""http://builder.page2site.com/sites/add/fbid:309195485863003"", ""Create"")"
"Bed & Breakfast Accommodation",36,"Phuket Gay Bed & Breakfast Accommodation in Thailand",,http://thebougainvilla.com,Thailand,66,"Ban Patong","Local business",,32,,138234319539930,http://www.facebook.com/138234319539930,"=HYPERLINK(""http://www.facebook.com/138234319539930/?sk=info"", ""138234319539930"")","=HYPERLINK(""http://builder.page2site.com/sites/add/fbid:138234319539930"", ""Create"")"
"Bed & Breakfast Accommodation",37,"Chapel Croft Bed and Breakfast Accommodation",01782,"http://www.chapelcroft.com
http://www.chapelcroft.co.uk","United Kingdom",44,Biddulph,"Local business",,29,,185791468107834,http://www.facebook.com/185791468107834,"=HYPERLINK(""http://www.facebook.com/185791468107834/?sk=info"", ""185791468107834"")","=HYPERLINK(""http://builder.page2site.com/sites/add/fbid:185791468107834"", ""Create"")"
"Bed & Breakfast Accommodation",38,"Vue de M Bed & Breakfast - Goolwa Accommodation",0885551487,www.vuedemerde.com.au,Australia,61,Goolwa,Hotel,"[{""id"":""164243073639257"",""name"":""Hotel""},{""id"":""189006297788323"",""name"":""Cottage""},{""id"":""110321355709642"",""name"":""Bed and Breakfast""}]",16,,256881214380416,http://www.facebook.com/256881214380416,"=HYPERLINK(""http://www.facebook.com/256881214380416/?sk=info"", ""256881214380416"")","=HYPERLINK(""http://builder.page2site.com/sites/add/fbid:256881214380416"", ""Create"")"
"Bed & Breakfast Accommodation",39,"Clare View Accommodation: Clare Valley bed and breakfast","04 338 444 82",www.clareview.com.au,Australia,61,Clare,Hotel,"[{""id"":""164243073639257"",""name"":""Hotel""}]",56,,136047146447297,http://www.facebook.com/136047146447297,"=HYPERLINK(""http://www.facebook.com/136047146447297/?sk=info"", ""136047146447297"")","=HYPERLINK(""http://builder.page2site.com/sites/add/fbid:136047146447297"", ""Create"")"
"Bed & Breakfast Accommodation",40,"Hazeldene Accommodation Bed  and Breakfast","023 8844848",<<not-applicable>>,Ireland,353,Bandon,"Local business","[{""id"":""110321355709642"",""name"":""Bed and Breakfast""}]",25,,656079451146073,http://www.facebook.com/656079451146073,"=HYPERLINK(""http://www.facebook.com/656079451146073/?sk=info"", ""656079451146073"")","=HYPERLINK(""http://builder.page2site.com/sites/add/fbid:656079451146073"", ""Create"")"
"Bed & Breakfast Accommodation",41,"Atlantic Villa Bed & Breakfast - Self Catering Cottages","087 2126798",http://www.anirishexperience.com/index.html,,,,Hotel,,187,1,185273228163014,http://www.facebook.com/185273228163014,"=HYPERLINK(""http://www.facebook.com/185273228163014/?sk=info"", ""185273228163014"")","=HYPERLINK(""http://builder.page2site.com/sites/add/fbid:185273228163014"", ""Create"")"
"Bed & Breakfast Accommodation",42,"Niagara Bed and Breakfast Accommodations",905-988-1303,http://www.niagarabb.com,Canada,1,"Saint Catharines",Hotel,"[{""id"":""164243073639257"",""name"":""Hotel""}]",13,,113835255314882,http://www.facebook.com/113835255314882,"=HYPERLINK(""http://www.facebook.com/113835255314882/?sk=info"", ""113835255314882"")","=HYPERLINK(""http://builder.page2site.com/sites/add/fbid:113835255314882"", ""Create"")"
"Bed & Breakfast Accommodation",43,"Labyrinth Rocks Bed & Breakfast Golden Bay Accommodation",035258665,http://labyrinthrocks.co.nz,"New Zealand",64,Takaka,Hotel,"[{""id"":""164243073639257"",""name"":""Hotel""}]",89,,394883290581571,http://www.facebook.com/394883290581571,"=HYPERLINK(""http://www.facebook.com/394883290581571/?sk=info"", ""394883290581571"")","=HYPERLINK(""http://builder.page2site.com/sites/add/fbid:394883290581571"", ""Create"")"
"Bed & Breakfast Accommodation",44,"Belmont Bed and Breakfast, boutique hotel accommodation.","+64 3 354 6890",www.belmontbnb.co.nz,"New Zealand",64,Christchurch,Hotel,"[{""id"":""110321355709642"",""name"":""Bed and Breakfast""},{""id"":""164243073639257"",""name"":""Hotel""}]",61,1,177030732321082,http://www.facebook.com/177030732321082,"=HYPERLINK(""http://www.facebook.com/177030732321082/?sk=info"", ""177030732321082"")","=HYPERLINK(""http://builder.page2site.com/sites/add/fbid:177030732321082"", ""Create"")"
"Bed & Breakfast Accommodation",45,"Fort Langley Garden Short Stay Accommodation Bed & Breakfast",604-882-2955,https://www.facebook.com/FortLangleyGardenShortStayAccomodation,Canada,1,Langley,Hotel,"[{""id"":""110321355709642"",""name"":""Bed and Breakfast""}]",66,,400581763340020,http://www.facebook.com/400581763340020,"=HYPERLINK(""http://www.facebook.com/400581763340020/?sk=info"", ""400581763340020"")","=HYPERLINK(""http://builder.page2site.com/sites/add/fbid:400581763340020"", ""Create"")"
"Bed & Breakfast Accommodation",46,"Occasional Accommodation Bed and Breakfast",01438869517,,"United Kingdom",44,Benington,Hotel,,12,,193522414009216,http://www.facebook.com/193522414009216,"=HYPERLINK(""http://www.facebook.com/193522414009216/?sk=info"", ""193522414009216"")","=HYPERLINK(""http://builder.page2site.com/sites/add/fbid:193522414009216"", ""Create"")"
"Bed & Breakfast Accommodation",47,"Cyrau View Bed and Breakfast and Self Catering Accommodation","01690 710771",betws-y-coed-accommodation.co.uk,,,,"Small business",,22,,270657579639426,http://www.facebook.com/270657579639426,"=HYPERLINK(""http://www.facebook.com/270657579639426/?sk=info"", ""270657579639426"")","=HYPERLINK(""http://builder.page2site.com/sites/add/fbid:270657579639426"", ""Create"")"
"Bed & Breakfast Accommodation",48,"FoxPond Bed and Breakfast: Inn and Accommodations, Marblehead MA","(781) 631-1630",foxpondbnb.com,"United States",1,Marblehead,Hotel,"[{""id"":""199611383389617"",""name"":""Lodge""},{""id"":""181803978524025"",""name"":""Inn""},{""id"":""110321355709642"",""name"":""Bed and Breakfast""}]",95,,164245853626906,http://www.facebook.com/164245853626906,"=HYPERLINK(""http://www.facebook.com/164245853626906/?sk=info"", ""164245853626906"")","=HYPERLINK(""http://builder.page2site.com/sites/add/fbid:164245853626906"", ""Create"")"
"Bed & Breakfast Accommodation",49,"Bush Sand and Sea - Bed and Breakfast Accommodation - Bethells, Auckland NZ",098109584,,,,,"Local business",,26,,184989119900,http://www.facebook.com/184989119900,"=HYPERLINK(""http://www.facebook.com/184989119900/?sk=info"", ""184989119900"")","=HYPERLINK(""http://builder.page2site.com/sites/add/fbid:184989119900"", ""Create"")"
"Bed & Breakfast Accommodation",50,"Accommodation Bed and Breakfast Available in South Africa",+27606965522,http://www.tantsanbandb.wozaonline.co.za,"South Africa",27,Christiana,"Local business","[{""id"":""110321355709642"",""name"":""Bed and Breakfast""}]",71,1,193262710871425,http://www.facebook.com/193262710871425,"=HYPERLINK(""http://www.facebook.com/193262710871425/?sk=info"", ""193262710871425"")","=HYPERLINK(""http://builder.page2site.com/sites/add/fbid:193262710871425"", ""Create"")"
"Bed & Breakfast Accommodation",51,"Amadeus Haus Bed & Breakfast - Stratford Ontario Accommodations","1-866-576-9139 ",,Canada,1,Stratford,Hotel,"[{""id"":""164243073639257"",""name"":""Hotel""}]",53,,308117422594655,http://www.facebook.com/308117422594655,"=HYPERLINK(""http://www.facebook.com/308117422594655/?sk=info"", ""308117422594655"")","=HYPERLINK(""http://builder.page2site.com/sites/add/fbid:308117422594655"", ""Create"")"
"Bed & Breakfast Accommodation",52,Inn-at-Cooperstown-Hotels-Lodging-Inn-Accommodations-Cooperstown-NY,"(607) 547-5756",www.innatcooperstown.com,"United States",1,Cooperstown,Hotel,"[{""id"":""110321355709642"",""name"":""Bed and Breakfast""},{""id"":""181803978524025"",""name"":""Inn""},{""id"":""164243073639257"",""name"":""Hotel""}]",1446,15,54672978815,http://www.facebook.com/54672978815,"=HYPERLINK(""http://www.facebook.com/54672978815/?sk=info"", ""54672978815"")","=HYPERLINK(""http://builder.page2site.com/sites/add/fbid:54672978815"", ""Create"")"
"Bed & Breakfast Accommodation",53,"Bondi Shores Accommodation","612 9130 6787",www.bondishores.com.au,Australia,61,Bondi,Hotel,"[{""id"":""152050108191372"",""name"":""Motel""},{""id"":""150438461681329"",""name"":""Hostel""},{""id"":""110321355709642"",""name"":""Bed and Breakfast""}]",4641,132,157745147623759,http://www.facebook.com/157745147623759,"=HYPERLINK(""http://www.facebook.com/157745147623759/?sk=info"", ""157745147623759"")","=HYPERLINK(""http://builder.page2site.com/sites/add/fbid:157745147623759"", ""Create"")"
"Bed & Breakfast Accommodation",54,"Santa Teresa Accommodation",+552122226166,http://www.santaaccommodation.com/,Brazil,55,"Rio de Janeiro",Hotel,"[{""id"":""110321355709642"",""name"":""Bed and Breakfast""},{""id"":""192686080759400"",""name"":""Vacation Home Rental""},{""id"":""211155112228091"",""name"":""Event Venue""}]",1925,17,545372345482873,http://www.facebook.com/545372345482873,"=HYPERLINK(""http://www.facebook.com/545372345482873/?sk=info"", ""545372345482873"")","=HYPERLINK(""http://builder.page2site.com/sites/add/fbid:545372345482873"", ""Create"")"
"Bed & Breakfast Accommodation",55,"Nou's Toeka Accommodation & Events Centre","+27 (0)13 741 3410 or +27 (0)60 316 7932",www.noustoeka.co.za,"South Africa",27,Nelspruit,"Event planning/event services","[{""id"":""110321355709642"",""name"":""Bed and Breakfast""},{""id"":""150217168372274"",""name"":""German Restaurant""},{""id"":""211155112228091"",""name"":""Event Venue""}]",421,24,455538797850926,http://www.facebook.com/455538797850926,"=HYPERLINK(""http://www.facebook.com/455538797850926/?sk=info"", ""455538797850926"")","=HYPERLINK(""http://builder.page2site.com/sites/add/fbid:455538797850926"", ""Create"")"
"Bed & Breakfast Accommodation",56,"La Maison Du Bonheur (Short Term Accommodation)","+61 401 815 650","www.lamaisondubonheur.co, www.gumtree.com.au, www.airbnb.com",Australia,61,Darwin,"Local business","[{""id"":""2500"",""name"":""Local Business""}]",76,,283658328387880,http://www.facebook.com/283658328387880,"=HYPERLINK(""http://www.facebook.com/283658328387880/?sk=info"", ""283658328387880"")","=HYPERLINK(""http://builder.page2site.com/sites/add/fbid:283658328387880"", ""Create"")"
"Bed & Breakfast Accommodation",57,"Zorbas Beach Village Hotel","+30 28210 39010-11,  +30 697 8187 355","www.hotel-zorbas.gr, http://hotelzorbas.wordpress.com, http://pinterest.com/hotelzorbas",Greece,30,Chani√°,Hotel,"[{""id"":""110321355709642"",""name"":""Bed and Breakfast""}]",1647,,271957426207584,http://www.facebook.com/271957426207584,"=HYPERLINK(""http://www.facebook.com/271957426207584/?sk=info"", ""271957426207584"")","=HYPERLINK(""http://builder.page2site.com/sites/add/fbid:271957426207584"", ""Create"")"
"Bed & Breakfast Accommodation",58,"Alora Valley View Accommodations","34  952 496 590",aloravalleyview.com,Spain,34,Alora,"Local business","[{""id"":""192686080759400"",""name"":""Vacation Home Rental""},{""id"":""110321355709642"",""name"":""Bed and Breakfast""}]",311,1,169246189765410,http://www.facebook.com/169246189765410,"=HYPERLINK(""http://www.facebook.com/169246189765410/?sk=info"", ""169246189765410"")","=HYPERLINK(""http://builder.page2site.com/sites/add/fbid:169246189765410"", ""Create"")"
"Bed & Breakfast Accommodation",59,"Purcell House Conference & Accommodation",018520754,http://www.purcellhouse.ie,Ireland,353,Dublin,"Business services","[{""id"":""110321355709642"",""name"":""Bed and Breakfast""}]",187,3,425687537557647,http://www.facebook.com/425687537557647,"=HYPERLINK(""http://www.facebook.com/425687537557647/?sk=info"", ""425687537557647"")","=HYPERLINK(""http://builder.page2site.com/sites/add/fbid:425687537557647"", ""Create"")"
"Bed & Breakfast Accommodation",60,"Block Island Accommodations","(401) 466-2912",www.BlockIslandBedandBreakfast.com,"United States",1,"New Shoreham",Hotel,"[{""id"":""110321355709642"",""name"":""Bed and Breakfast""}]",669,4,183512891700395,http://www.facebook.com/183512891700395,"=HYPERLINK(""http://www.facebook.com/183512891700395/?sk=info"", ""183512891700395"")","=HYPERLINK(""http://builder.page2site.com/sites/add/fbid:183512891700395"", ""Create"")"
"Bed & Breakfast Accommodation",61,"Imperial Summer Accommodation","+44(0) 20 7594 9507/11",http://www.imperial.ac.uk/summeraccommodation,"United Kingdom",44,London,Hotel,"[{""id"":""164243073639257"",""name"":""Hotel""},{""id"":""110321355709642"",""name"":""Bed and Breakfast""}]",4533,2,141102015905300,http://www.facebook.com/141102015905300,"=HYPERLINK(""http://www.facebook.com/141102015905300/?sk=info"", ""141102015905300"")","=HYPERLINK(""http://builder.page2site.com/sites/add/fbid:141102015905300"", ""Create"")"
"Bed & Breakfast Accommodation",62,"Welcome Springs Remedial Massage and B&B Accommodation At Victor Harbor","+61 8 8554 9503",http://www.welcomesprings.com.au,Australia,61,"Victor Harbor",Hotel,"[{""id"":""109578329118821"",""name"":""Massage""},{""id"":""189006297788323"",""name"":""Cottage""},{""id"":""110321355709642"",""name"":""Bed and Breakfast""}]",296,14,164899743574444,http://www.facebook.com/164899743574444,"=HYPERLINK(""http://www.facebook.com/164899743574444/?sk=info"", ""164899743574444"")","=HYPERLINK(""http://builder.page2site.com/sites/add/fbid:164899743574444"", ""Create"")"
"Bed & Breakfast Accommodation",63,"Camfield House / Riverside Accommodation",07711215823,http://www.riversideaccommodation.co.uk,"United Kingdom",44,Thurso,Hotel,"[{""id"":""110321355709642"",""name"":""Bed and Breakfast""}]",318,9,1487137924849885,http://www.facebook.com/1487137924849885,"=HYPERLINK(""http://www.facebook.com/1487137924849885/?sk=info"", ""1487137924849885"")","=HYPERLINK(""http://builder.page2site.com/sites/add/fbid:1487137924849885"", ""Create"")"
"Bed & Breakfast Accommodation",64,"Ardmorn Holiday Accommodation","01470 521354",http://www.ardmorn.com,"United Kingdom",44,Dunvegan,"Local business","[{""id"":""110321355709642"",""name"":""Bed and Breakfast""},{""id"":""192686080759400"",""name"":""Vacation Home Rental""}]",160,53,705298732834976,http://www.facebook.com/705298732834976,"=HYPERLINK(""http://www.facebook.com/705298732834976/?sk=info"", ""705298732834976"")","=HYPERLINK(""http://builder.page2site.com/sites/add/fbid:705298732834976"", ""Create"")"
"Bed & Breakfast Accommodation",65,"Cysgod y Coed B&B and Self Catering Accommodation for 2","01678 520036 or 07896634483",www.cysgod-y-coed.co.uk,"United Kingdom",44,Bala,"Local business","[{""id"":""192686080759400"",""name"":""Vacation Home Rental""},{""id"":""110321355709642"",""name"":""Bed and Breakfast""}]",178,8,149269200841,http://www.facebook.com/149269200841,"=HYPERLINK(""http://www.facebook.com/149269200841/?sk=info"", ""149269200841"")","=HYPERLINK(""http://builder.page2site.com/sites/add/fbid:149269200841"", ""Create"")"
"Bed & Breakfast Accommodation",66,"Parnella Accommodation Bruny Island & Kettering",+61418125966,http://www.parnella.com,Australia,61,Kettering,"Local business","[{""id"":""110321355709642"",""name"":""Bed and Breakfast""},{""id"":""192686080759400"",""name"":""Vacation Home Rental""}]",117,,306764862764647,http://www.facebook.com/306764862764647,"=HYPERLINK(""http://www.facebook.com/306764862764647/?sk=info"", ""306764862764647"")","=HYPERLINK(""http://builder.page2site.com/sites/add/fbid:306764862764647"", ""Create"")"
"Bed & Breakfast Accommodation",67,"Dsquare Accommodation","+39 3397539014",http://www.dantesquare.com,Italy,39,Naples,Hotel,"[{""id"":""110321355709642"",""name"":""Bed and Breakfast""}]",174,,230518883822914,http://www.facebook.com/230518883822914,"=HYPERLINK(""http://www.facebook.com/230518883822914/?sk=info"", ""230518883822914"")","=HYPERLINK(""http://builder.page2site.com/sites/add/fbid:230518883822914"", ""Create"")"
"Bed & Breakfast Accommodation",68,"The Pebley Inn, Pub, Restaurant and Accommodation.",01246810327,http://www.thepebleyinn.co.uk/,"United Kingdom",44,Chesterfield,Bar,"[{""id"":""110321355709642"",""name"":""Bed and Breakfast""},{""id"":""273819889375819"",""name"":""Restaurant""},{""id"":""218693881483234"",""name"":""Pub""}]",442,80,535144159919583,http://www.facebook.com/535144159919583,"=HYPERLINK(""http://www.facebook.com/535144159919583/?sk=info"", ""535144159919583"")","=HYPERLINK(""http://builder.page2site.com/sites/add/fbid:535144159919583"", ""Create"")"
"Bed & Breakfast Accommodation",69,"Pedfield Country House B&B Accommodation New Zealand","+64 7 824 0982",http://www.pedfieldcountryhouse.co.nz,"New Zealand",64,Hamilton,Hotel,"[{""id"":""110321355709642"",""name"":""Bed and Breakfast""}]",177,7,110049399008869,http://www.facebook.com/110049399008869,"=HYPERLINK(""http://www.facebook.com/110049399008869/?sk=info"", ""110049399008869"")","=HYPERLINK(""http://builder.page2site.com/sites/add/fbid:110049399008869"", ""Create"")"
"Bed & Breakfast Accommodation",70,"Friday Island Beach House, Accommodation, and Restaurant",0227722634,www.fridayisland.co.za,"South Africa",27,Langebaan,"Local business","[{""id"":""110321355709642"",""name"":""Bed and Breakfast""}]",409,7,157489501004149,http://www.facebook.com/157489501004149,"=HYPERLINK(""http://www.facebook.com/157489501004149/?sk=info"", ""157489501004149"")","=HYPERLINK(""http://builder.page2site.com/sites/add/fbid:157489501004149"", ""Create"")"
"Bed & Breakfast Accommodation",71,"Tigri Tours, Restaurant and Accommodation",0094771048202,,"Sri Lanka",94,Hikkaduwa,Restaurant/cafe,"[{""id"":""124861974254366"",""name"":""Tours & Sightseeing""},{""id"":""110321355709642"",""name"":""Bed and Breakfast""},{""id"":""273819889375819"",""name"":""Restaurant""}]",199,11,122306271239022,http://www.facebook.com/122306271239022,"=HYPERLINK(""http://www.facebook.com/122306271239022/?sk=info"", ""122306271239022"")","=HYPERLINK(""http://builder.page2site.com/sites/add/fbid:122306271239022"", ""Create"")"
"Bed & Breakfast Accommodation",72,"31 Bluegum RISE B&B","+61 7 3202 9222",,Australia,61,Brisbane,Hotel,"[{""id"":""110321355709642"",""name"":""Bed and Breakfast""}]",381,1,780150458663905,http://www.facebook.com/780150458663905,"=HYPERLINK(""http://www.facebook.com/780150458663905/?sk=info"", ""780150458663905"")","=HYPERLINK(""http://builder.page2site.com/sites/add/fbid:780150458663905"", ""Create"")"
"Bed & Breakfast Accommodation",73,"Ashleigh Hire, Anglesey - Accommodation & Lettings","01248 421980 or 07710 257651 or 07794 184054",http://www.airbnb.co.uk,"United Kingdom",44,Gaerwen,Hotel,"[{""id"":""110321355709642"",""name"":""Bed and Breakfast""}]",154,6,892809884081438,http://www.facebook.com/892809884081438,"=HYPERLINK(""http://www.facebook.com/892809884081438/?sk=info"", ""892809884081438"")","=HYPERLINK(""http://builder.page2site.com/sites/add/fbid:892809884081438"", ""Create"")"
"Bed & Breakfast Accommodation",74,"BroomeTown B&B - Boutique Accommodation","08 91922006",www.broometown.com.au,Australia,61,Broome,"Local business","[{""id"":""110321355709642"",""name"":""Bed and Breakfast""}]",897,15,472483005401,http://www.facebook.com/472483005401,"=HYPERLINK(""http://www.facebook.com/472483005401/?sk=info"", ""472483005401"")","=HYPERLINK(""http://builder.page2site.com/sites/add/fbid:472483005401"", ""Create"")"
"Bed & Breakfast Accommodation",75,"Willow Creek Mangawhai Boutique B&B/Holiday Rental Accommodation",+6421952985,http://www.willowcreekmangawhai.squarespace.com,"New Zealand",64,Mangawhai,Hotel,"[{""id"":""110321355709642"",""name"":""Bed and Breakfast""}]",39,18,623016394481480,http://www.facebook.com/623016394481480,"=HYPERLINK(""http://www.facebook.com/623016394481480/?sk=info"", ""623016394481480"")","=HYPERLINK(""http://builder.page2site.com/sites/add/fbid:623016394481480"", ""Create"")"
"Bed & Breakfast Accommodation",76,"Cirque du Bo-lei, Greyton Accommodation","(028) 2549740 or 0824900059",,"South Africa",27,Greyton,Hotel,"[{""id"":""110321355709642"",""name"":""Bed and Breakfast""},{""id"":""192686080759400"",""name"":""Vacation Home Rental""},{""id"":""187004854667366"",""name"":""Campground""}]",62,8,1446805455560752,http://www.facebook.com/1446805455560752,"=HYPERLINK(""http://www.facebook.com/1446805455560752/?sk=info"", ""1446805455560752"")","=HYPERLINK(""http://builder.page2site.com/sites/add/fbid:1446805455560752"", ""Create"")"
"Bed & Breakfast Accommodation",77,"Bakkies B&B Wellington Accommodation","27 (0)82 783 1776",http://www.bakkiesbb.com/,"South Africa",27,Wellington,Hotel,"[{""id"":""110321355709642"",""name"":""Bed and Breakfast""},{""id"":""139721016091877"",""name"":""Outdoor Recreation""},{""id"":""134015953331113"",""name"":""Convention Center""}]",395,7,127940670743337,http://www.facebook.com/127940670743337,"=HYPERLINK(""http://www.facebook.com/127940670743337/?sk=info"", ""127940670743337"")","=HYPERLINK(""http://builder.page2site.com/sites/add/fbid:127940670743337"", ""Create"")"
"Bed & Breakfast Accommodation",78,"Pumula Accommodation B&B",0812478282,http://www.pumula-accommodation-namibia.com,Namibia,264,Windhoek,Hotel,"[{""id"":""110321355709642"",""name"":""Bed and Breakfast""}]",78,1,1391015644453345,http://www.facebook.com/1391015644453345,"=HYPERLINK(""http://www.facebook.com/1391015644453345/?sk=info"", ""1391015644453345"")","=HYPERLINK(""http://builder.page2site.com/sites/add/fbid:1391015644453345"", ""Create"")"
"Bed & Breakfast Accommodation",79,"Pensione Symi Accommodation",0785540167,http://www.symipaternoster.co.za/,"South Africa",27,Paternoster,Hotel,"[{""id"":""110321355709642"",""name"":""Bed and Breakfast""},{""id"":""164243073639257"",""name"":""Hotel""}]",112,8,595199403934682,http://www.facebook.com/595199403934682,"=HYPERLINK(""http://www.facebook.com/595199403934682/?sk=info"", ""595199403934682"")","=HYPERLINK(""http://builder.page2site.com/sites/add/fbid:595199403934682"", ""Create"")"
"Bed & Breakfast Accommodation",80,"Akweja B&B Accommodation CC","27-11 867-4010 // 072 401 0001",www.akweja.co.za,"South Africa",27,Alberton,Hotel,"[{""id"":""110321355709642"",""name"":""Bed and Breakfast""},{""id"":""164243073639257"",""name"":""Hotel""}]",95,5,216591561697128,http://www.facebook.com/216591561697128,"=HYPERLINK(""http://www.facebook.com/216591561697128/?sk=info"", ""216591561697128"")","=HYPERLINK(""http://builder.page2site.com/sites/add/fbid:216591561697128"", ""Create"")"
"Bed & Breakfast Accommodation",81,"Drumcreehy House - Sea View Accommodation -  B&B in Ballyvaughan / Ireland","+353 (0) 65 7077377",www.drumcreehyhouse.com,Ireland,353,Ballyvaughan,Hotel,"[{""id"":""110321355709642"",""name"":""Bed and Breakfast""}]",243,1,106504022704454,http://www.facebook.com/106504022704454,"=HYPERLINK(""http://www.facebook.com/106504022704454/?sk=info"", ""106504022704454"")","=HYPERLINK(""http://builder.page2site.com/sites/add/fbid:106504022704454"", ""Create"")"
"Bed & Breakfast Accommodation",82,"Kokopelli Inn :: Estes Park, Colorado B&B, Inn, Hotel Accommodation","(970) 586-4420",http://www.kokopelliinn.net,"United States",1,"Estes Park",Hotel,"[{""id"":""110321355709642"",""name"":""Bed and Breakfast""}]",156,,111153712249961,http://www.facebook.com/111153712249961,"=HYPERLINK(""http://www.facebook.com/111153712249961/?sk=info"", ""111153712249961"")","=HYPERLINK(""http://builder.page2site.com/sites/add/fbid:111153712249961"", ""Create"")"
"Bed & Breakfast Accommodation",83,"Tranquillity Gardens Self Contained Accommodation","0499 004 704",http://www.tranquillitygardens.com.au,Australia,61,Legana,Hotel,"[{""id"":""110321355709642"",""name"":""Bed and Breakfast""}]",79,,753234921400353,http://www.facebook.com/753234921400353,"=HYPERLINK(""http://www.facebook.com/753234921400353/?sk=info"", ""753234921400353"")","=HYPERLINK(""http://builder.page2site.com/sites/add/fbid:753234921400353"", ""Create"")"
"Bed & Breakfast Accommodation",84,"Aira Lodge Accommodation",0860649545,http://www.airalodgekinvara.com,Ireland,353,Galway,Hotel,"[{""id"":""110321355709642"",""name"":""Bed and Breakfast""}]",771,,119166104942367,http://www.facebook.com/119166104942367,"=HYPERLINK(""http://www.facebook.com/119166104942367/?sk=info"", ""119166104942367"")","=HYPERLINK(""http://builder.page2site.com/sites/add/fbid:119166104942367"", ""Create"")"
"Bed & Breakfast Accommodation",85,"Sutherland Accommodation / Kambro Kind B & B","+27 23 571 1405",http://www.sutherlandaccommodation.com,"South Africa",27,Sutherland,Hotel,"[{""id"":""110321355709642"",""name"":""Bed and Breakfast""}]",24,,270725319777422,http://www.facebook.com/270725319777422,"=HYPERLINK(""http://www.facebook.com/270725319777422/?sk=info"", ""270725319777422"")","=HYPERLINK(""http://builder.page2site.com/sites/add/fbid:270725319777422"", ""Create"")"
"Bed & Breakfast Accommodation",86,"Damodar Nivas', Nature tourism & Budget Accommodation at Dhamapur.",,,India,91,Malwan,Hotel,"[{""id"":""110321355709642"",""name"":""Bed and Breakfast""}]",87,,660471600663979,http://www.facebook.com/660471600663979,"=HYPERLINK(""http://www.facebook.com/660471600663979/?sk=info"", ""660471600663979"")","=HYPERLINK(""http://builder.page2site.com/sites/add/fbid:660471600663979"", ""Create"")"
"Bed & Breakfast Accommodation",87,"McCarthy Lakehouse Maleny Accommodation",0400771143,,Australia,61,Maleny,Hotel,"[{""id"":""110321355709642"",""name"":""Bed and Breakfast""}]",109,1,1506448709566781,http://www.facebook.com/1506448709566781,"=HYPERLINK(""http://www.facebook.com/1506448709566781/?sk=info"", ""1506448709566781"")","=HYPERLINK(""http://builder.page2site.com/sites/add/fbid:1506448709566781"", ""Create"")"
"Bed & Breakfast Accommodation",88,"Bed & Breakfast Accommodations of Fredericksburg","(830) 997-3049",,"United States",1,Fredericksburg,"Local business","[{""id"":""110321355709642"",""name"":""Bed and Breakfast""}]",4,,117618904931327,http://www.facebook.com/117618904931327,"=HYPERLINK(""http://www.facebook.com/117618904931327/?sk=info"", ""117618904931327"")","=HYPERLINK(""http://builder.page2site.com/sites/add/fbid:117618904931327"", ""Create"")"
"Bed & Breakfast Accommodation",89,"Accommodation On George B&B","0363 982413 or (mobile) 0417 516 211",www.accommodationongeorgebandb.com.au,Australia,61,Perth,"Attractions/things to do","[{""id"":""110321355709642"",""name"":""Bed and Breakfast""}]",45,,231244573592139,http://www.facebook.com/231244573592139,"=HYPERLINK(""http://www.facebook.com/231244573592139/?sk=info"", ""231244573592139"")","=HYPERLINK(""http://builder.page2site.com/sites/add/fbid:231244573592139"", ""Create"")"
"Bed & Breakfast Accommodation",90,"Seaview Rates and Accommodation",05841583,,Ireland,353,Waterford,"Local business","[{""id"":""110321355709642"",""name"":""Bed and Breakfast""}]",58,,1454681368111528,http://www.facebook.com/1454681368111528,"=HYPERLINK(""http://www.facebook.com/1454681368111528/?sk=info"", ""1454681368111528"")","=HYPERLINK(""http://builder.page2site.com/sites/add/fbid:1454681368111528"", ""Create"")"
"Bed & Breakfast Accommodation",91,"Drifted Away - Luxury Accommodation at Valla Beach",0400649960,<<not-applicable>>,Australia,61,Valla,"Attractions/things to do","[{""id"":""110321355709642"",""name"":""Bed and Breakfast""}]",456,7,199284046889559,http://www.facebook.com/199284046889559,"=HYPERLINK(""http://www.facebook.com/199284046889559/?sk=info"", ""199284046889559"")","=HYPERLINK(""http://builder.page2site.com/sites/add/fbid:199284046889559"", ""Create"")"
"Bed & Breakfast Accommodation",92,"Potters Croft Accommodation & Garden","(03) 3048865",http://www.potterscroft.co.nz,"New Zealand",64,Akaroa,"Local business","[{""id"":""110321355709642"",""name"":""Bed and Breakfast""},{""id"":""211155112228091"",""name"":""Event Venue""}]",70,,1412290548994096,http://www.facebook.com/1412290548994096,"=HYPERLINK(""http://www.facebook.com/1412290548994096/?sk=info"", ""1412290548994096"")","=HYPERLINK(""http://builder.page2site.com/sites/add/fbid:1412290548994096"", ""Create"")"
"Bed & Breakfast Accommodation",93,"Siam Classic Inn & Spa, Potsdam NY Accommodations","(866) 223-7293",www.siamclassicinnandspa.com,"United States",1,Potsdam,Hotel,"[{""id"":""110321355709642"",""name"":""Bed and Breakfast""}]",136,5,293563873999614,http://www.facebook.com/293563873999614,"=HYPERLINK(""http://www.facebook.com/293563873999614/?sk=info"", ""293563873999614"")","=HYPERLINK(""http://builder.page2site.com/sites/add/fbid:293563873999614"", ""Create"")"
"Bed & Breakfast Accommodation",94,"Jan's B & B Accommodation","07 3204 1332",http://www.jans-accommodation.com.au/index.html,Australia,61,Redcliffe,Hotel,"[{""id"":""110321355709642"",""name"":""Bed and Breakfast""},{""id"":""192686080759400"",""name"":""Vacation Home Rental""},{""id"":""164243073639257"",""name"":""Hotel""}]",43,,164471183700419,http://www.facebook.com/164471183700419,"=HYPERLINK(""http://www.facebook.com/164471183700419/?sk=info"", ""164471183700419"")","=HYPERLINK(""http://builder.page2site.com/sites/add/fbid:164471183700419"", ""Create"")"
"Bed & Breakfast Accommodation",95,"The Quiver Tree B&B Accommodation Langebaan",+27836977321,www.thequivertree.net,"South Africa",27,Langebaan,"Local business","[{""id"":""110321355709642"",""name"":""Bed and Breakfast""},{""id"":""164243073639257"",""name"":""Hotel""}]",182,14,115855268496450,http://www.facebook.com/115855268496450,"=HYPERLINK(""http://www.facebook.com/115855268496450/?sk=info"", ""115855268496450"")","=HYPERLINK(""http://builder.page2site.com/sites/add/fbid:115855268496450"", ""Create"")"
"Bed & Breakfast Accommodation",96,"Bed & Breakfast Accommodations Inc","(413) 582-9888",,"United States",1,Florence,"Local business","[{""id"":""110321355709642"",""name"":""Bed and Breakfast""},{""id"":""164243073639257"",""name"":""Hotel""}]",,,113781698652108,http://www.facebook.com/113781698652108,"=HYPERLINK(""http://www.facebook.com/113781698652108/?sk=info"", ""113781698652108"")","=HYPERLINK(""http://builder.page2site.com/sites/add/fbid:113781698652108"", ""Create"")"
"Bed & Breakfast Accommodation",97,"Il Porto Vecchio B&B Accommodation","(+39) 079523212 ",www.bbstintino.com,Italy,39,Stintino,Tours/sightseeing,"[{""id"":""110321355709642"",""name"":""Bed and Breakfast""}]",779,1,74156812389,http://www.facebook.com/74156812389,"=HYPERLINK(""http://www.facebook.com/74156812389/?sk=info"", ""74156812389"")","=HYPERLINK(""http://builder.page2site.com/sites/add/fbid:74156812389"", ""Create"")"
"Bed & Breakfast Accommodation",98,"Bed & Breakfast Accommodations In Berkeley","(510) 548-7556",,"United States",1,Berkeley,"Local business","[{""id"":""110321355709642"",""name"":""Bed and Breakfast""}]",1,,115282508491290,http://www.facebook.com/115282508491290,"=HYPERLINK(""http://www.facebook.com/115282508491290/?sk=info"", ""115282508491290"")","=HYPERLINK(""http://builder.page2site.com/sites/add/fbid:115282508491290"", ""Create"")"
"Bed & Breakfast Accommodation",99,"Joy's Self Catering and B&B Fish Hoek Accommodation","+27 21 7821930",www.joys.co.za,"South Africa",27,"Cape Town",Hotel,"[{""id"":""110321355709642"",""name"":""Bed and Breakfast""}]",163,1,149072211779313,http://www.facebook.com/149072211779313,"=HYPERLINK(""http://www.facebook.com/149072211779313/?sk=info"", ""149072211779313"")","=HYPERLINK(""http://builder.page2site.com/sites/add/fbid:149072211779313"", ""Create"")"
"Bed & Breakfast Accommodation",100,"Elm Lodge Golf & Accommodation",1584-872308,http://www.elm-lodge.org.uk,"United Kingdom",44,Ludlow,"Local business","[{""id"":""110321355709642"",""name"":""Bed and Breakfast""}]",1,,1396958443910741,http://www.facebook.com/1396958443910741,"=HYPERLINK(""http://www.facebook.com/1396958443910741/?sk=info"", ""1396958443910741"")","=HYPERLINK(""http://builder.page2site.com/sites/add/fbid:1396958443910741"", ""Create"")"
"Bed & Breakfast Accommodation",101,"Bed&Breakfast, Guesthouse, Private accommodation",00385981832359,http://branka.com.hr,Croatia,385,Labin,"Local business","[{""id"":""197289820310880"",""name"":""Home""}]",2,,426651890720308,http://www.facebook.com/426651890720308,"=HYPERLINK(""http://www.facebook.com/426651890720308/?sk=info"", ""426651890720308"")","=HYPERLINK(""http://builder.page2site.com/sites/add/fbid:426651890720308"", ""Create"")"
"Bed & Breakfast Accommodation",102,"Tiers View Bed & Breakfast Accommodation","0883897827 or Mobile 0410149850",http://tiersview.com.au,Australia,61,Woodside,"Attractions/things to do","[{""id"":""2523"",""name"":""Attractions\/Things to Do""}]",2,,502299129786713,http://www.facebook.com/502299129786713,"=HYPERLINK(""http://www.facebook.com/502299129786713/?sk=info"", ""502299129786713"")","=HYPERLINK(""http://builder.page2site.com/sites/add/fbid:502299129786713"", ""Create"")"
"Bed & Breakfast Accommodation",103,"Canice Mooney Guest House - B&B and Self Catering Accommodation Co. Leitrim","086 3785902         ",http://www.selfcateringleitrim.com,Ireland,353,Drumshambo,"Local business","[{""id"":""110321355709642"",""name"":""Bed and Breakfast""}]",214,10,184479301604707,http://www.facebook.com/184479301604707,"=HYPERLINK(""http://www.facebook.com/184479301604707/?sk=info"", ""184479301604707"")","=HYPERLINK(""http://builder.page2site.com/sites/add/fbid:184479301604707"", ""Create"")"
"Bed & Breakfast Accommodation",104,"Desert Gem Accommodation and Shuttle Namibia",+264811273439,,Namibia,264,Swakopmund,Hotel,"[{""id"":""110321355709642"",""name"":""Bed and Breakfast""},{""id"":""170817119631096"",""name"":""Airport Shuttle""}]",1,,1539278819643183,http://www.facebook.com/1539278819643183,"=HYPERLINK(""http://www.facebook.com/1539278819643183/?sk=info"", ""1539278819643183"")","=HYPERLINK(""http://builder.page2site.com/sites/add/fbid:1539278819643183"", ""Create"")"
"Bed & Breakfast Accommodation",105,"Derbyshire Hotel Bed and Breakfast B&B Directory Belper","07967 409424","http://belperbedandbreakfast.wordpress.com/ http://bedandbreakfastbelper.wordpress.com/","United Kingdom",44,Belper,Hotel,"[{""id"":""164243073639257"",""name"":""Hotel""},{""id"":""110321355709642"",""name"":""Bed and Breakfast""},{""id"":""191173027579272"",""name"":""Wedding Planning""}]",10,,450687055046000,http://www.facebook.com/450687055046000,"=HYPERLINK(""http://www.facebook.com/450687055046000/?sk=info"", ""450687055046000"")","=HYPERLINK(""http://builder.page2site.com/sites/add/fbid:450687055046000"", ""Create"")"
